     2.11           N: GPS NAV DATA                         RINEX VERSION / TYPE
teqc  2019Feb25                         20221121 12:23:35UTCPGM / RUN BY / DATE
OSX ker:10.11.6|Core i5|gcc 4.3 -m64|OSX ker:10.10+|=+      COMMENT
    6.5193D-09  2.2352D-08 -5.9605D-08 -1.1921D-07          ION ALPHA
    8.6016D+04  9.8304D+04 -6.5536D+04 -5.2429D+05          ION BETA
    9.313225746155D-10 0.000000000000D+00   319488     1533 DELTA-UTC: A0,A1,T,W
                                                            END OF HEADER
13 09  5 25 23 59 44.0 2.979673445225D-04 9.094947017729D-13 0.000000000000D+00
    4.000000000000D+00 2.928125000000D+01 4.070526696633D-09 8.236681457015D-01
    1.437962055206D-06 4.131000838242D-03-9.015202522278D-07 5.153704469681D+03
    1.727840000000D+05-8.381903171539D-08 1.756527434761D+00-2.421438694000D-08
    9.946175651282D-01 4.115312500000D+02 1.572380993305D+00-8.330704150124D-09
    1.939366496685D-10 1.000000000000D+00 1.533000000000D+03 0.000000000000D+00
    2.000000000000D+00 0.000000000000D+00-1.117587089539D-08 4.000000000000D+00
    1.656180000000D+05 4.000000000000D+00
